OBJECT_NAME,OBJECT_ID,EPOCH,MEAN_MOTION,ECCENTRICITY,INCLINATION,RA_OF_ASC_NODE,ARG_OF_PERICENTER,MEAN_ANOMALY,EPHEMERIS_TYPE,CLASSIFICATION_TYPE,NORAD_CAT_ID,ELEMENT_SET_NO,REV_AT_EPOCH,BSTAR,MEAN_MOTION_DOT,MEAN_MOTION_DDOT
ALOS-2,2014-029A,2026-07-16T15:03:01.260288,14.79469421,.00015941,97.9234,294.3700,91.1008,269.0386,0,U,39766,999,65593,.12108127E-3,.853E-5,0
KAZEOSAT 2,2014-033A,2026-07-16T14:22:18.283008,14.85502169,.00074734,97.5389,35.6549,214.0036,146.0702,0,U,40010,999,65332,.27616464E-4,.188E-5,0
HODOYOSHI-4,2014-033B,2026-07-16T14:51:30.034368,14.88192907,.00227484,97.5454,21.0226,204.5261,155.4876,0,U,40011,999,65318,.91928379E-4,.799E-5,0
DEIMOS-2,2014-033D,2026-07-16T14:09:58.744800,14.93796319,.00010729,97.5786,71.0410,110.8005,249.3330,0,U,40013,999,64211,.70852489E-4,.697E-5,0
HODOYOSHI-3,2014-033F,2026-07-16T10:05:20.393952,14.85438467,.00313269,97.6447,359.2898,257.6701,102.1007,0,U,40015,999,65196,.60467136E-4,.472E-5,0
SPOT 7,2014-034A,2026-07-16T15:09:31.048704,14.60982984,.00015962,98.0616,259.3626,93.9281,266.2102,0,U,40053,999,64143,.11975376E-3,.542E-5,0
SKYSAT-B,2014-037D,2026-07-16T10:37:31.469376,14.88093555,.00056739,98.3854,158.0796,168.9313,191.2027,0,U,40072,999,65031,.71529386E-4,.596E-5,0
WORLDVIEW-3 (WV-3),2014-048A,2026-07-16T14:41:26.190816,14.85065464,.00014104,97.8556,272.0376,153.8010,206.3276,0,U,40115,999,64627,.47837573E-4,.355E-5,0
GAOFEN-2,2014-049A,2026-07-16T15:15:11.029248,14.80929333,.00083204,98.0097,261.8127,130.2667,229.9274,0,U,40118,999,64359,.49600383E-4,.33E-5,0
YAOGAN-21,2014-053A,2026-07-16T14:14:50.064000,15.26771842,.00076517,97.1450,236.5724,3.2277,356.9011,0,U,40143,999,65944,.18353576E-3,.4764E-4,0
YAOGAN-22,2014-063A,2026-07-16T09:20:34.320768,13.15531517,.00068822,100.7763,349.1522,122.7206,237.4569,0,U,40275,999,56365,.11303615E-4,-.43E-6,0
ASNARO,2014-070A,2026-07-16T15:48:48.295584,15.19393545,.00048759,97.3449,272.9813,84.5292,275.6499,0,U,40298,999,64848,.19255066E-3,.4009E-4,0
YAOGAN-24,2014-072A,2026-07-16T15:16:26.414112,14.76120969,.00147141,98.1527,335.2254,165.0366,195.1282,0,U,40310,999,62806,.10521506E-3,.674E-5,0
CBERS 4,2014-079A,2026-07-16T14:10:41.356416,14.35516730,.00007624,98.3516,253.4976,52.6867,307.4389,0,U,40336,999,60817,.71864762E-4,.165E-5,0
YAOGAN-26,2014-088A,2026-07-16T14:40:31.842624,15.48478311,.00016659,97.0644,197.1555,334.0463,26.0704,0,U,40362,999,64225,.21546632E-3,.11363E-3,0
SMAP,2015-003A,2026-07-16T13:11:46.858560,14.63389758,.00016103,98.1284,204.2295,94.4352,265.7034,0,U,40376,999,61191,.40932204E-4,.165E-5,0
KOMPSAT-3A,2015-014A,2026-07-16T14:10:39.893664,15.55483903,.00561154,97.6893,191.1373,70.8004,289.9310,0,U,40536,999,62638,.29252275E-3,.21336E-3,0
SENTINEL-2A,2015-028A,2026-07-16T15:43:34.396608,14.30815497,.00012893,98.5681,272.0872,93.9032,266.2299,0,U,40697,999,57794,.10849685E-3,.241E-5,0
GAOFEN-8,2015-030A,2026-07-16T14:14:08.088288,15.46980913,.00099606,97.6887,32.7498,91.4441,268.7949,0,U,40701,999,61599,.3056047E-3,.15358E-3,0
CARBONITE 1 (CBNT-1),2015-032D,2026-07-16T14:06:40.480992,14.83671172,.00140043,97.6515,14.4260,192.2553,167.8323,0,U,40718,999,59370,.15005155E-3,.119E-4,0
YAOGAN-27,2015-040A,2026-07-16T14:24:55.662336,13.16071967,.00085559,100.1168,182.7091,142.0196,218.1522,0,U,40878,999,52153,-.39597158E-3,-.193E-5,0
GAOFEN-9 01,2015-047A,2026-07-16T14:48:49.216320,14.82936521,.00283657,97.6264,231.9735,46.0054,314.3492,0,U,40894,999,58455,.62039297E-4,.456E-5,0
YAOGAN-28,2015-064A,2026-07-16T14:28:29.995680,15.27770613,.00120744,97.3114,335.2779,88.7506,271.5117,0,U,41026,999,59517,.13324614E-3,.3548E-4,0
YAOGAN-29,2015-069A,2026-07-16T14:14:52.389024,14.83109169,.00006688,98.0016,226.2714,11.6921,348.4308,0,U,41038,999,57498,.72603728E-4,.537E-5,0
KENT RIDGE 1,2015-077B,2026-07-16T05:42:00.078624,15.23286863,.00082821,14.9804,49.9101,289.5627,70.3801,0,U,41167,999,58553,.63609999E-4,.2315E-4,0
GAOFEN-4,2015-083A,2026-07-16T13:49:25.561056,1.00271956,.00042774,0.4312,83.7510,125.6334,38.0749,0,U,41194,999,3882,0,-.345E-5,0
JASON-3,2016-002A,2026-07-16T14:16:47.132544,12.87628709,.00081661,66.0416,64.0093,270.7923,89.2160,0,U,41240,999,49103,.11388462E-3,-.33E-6,0
SENTINEL-3A,2016-011A,2026-07-16T14:25:23.896992,14.26740004,.00013561,98.6237,264.5601,89.5036,270.6300,0,U,41335,999,54225,.35941244E-4,.43E-6,0
ZIYUAN 3-02 (ZY 3-02),2016-033A,2026-07-16T15:45:25.259904,15.21442827,.00142482,97.3826,272.8644,179.8328,180.2916,0,U,41556,999,56246,.12266361E-3,.2692E-4,0
CARTOSAT-2C,2016-040A,2026-07-16T15:12:25.188768,15.19274113,.000944,97.4468,257.2036,40.2190,319.9741,0,U,41599,999,55818,.17433264E-3,.3612E-4,0
