ALOS-2                  
1 39766U 14029A   26197.62709792  .00000853  00000+0  12108-3 0  9994
2 39766  97.9234 294.3700 0001594  91.1008 269.0386 14.79469421655939
KAZEOSAT 2              
1 40010U 14033A   26197.59882272  .00000188  00000+0  27616-4 0  9996
2 40010  97.5389  35.6549 0007473 214.0036 146.0702 14.85502169653327
HODOYOSHI-4             
1 40011U 14033B   26197.61909762  .00000799  00000+0  91928-4 0  9999
2 40011  97.5454  21.0226 0022748 204.5261 155.4876 14.88192907653186
DEIMOS-2                
1 40013U 14033D   26197.59026325  .00000697  00000+0  70852-4 0  9993
2 40013  97.5786  71.0410 0001072 110.8005 249.3330 14.93796319642110
HODOYOSHI-3             
1 40015U 14033F   26197.42037493  .00000472  00000+0  60467-4 0  9997
2 40015  97.6447 359.2898 0031326 257.6701 102.1007 14.85438467651964
SPOT 7                  
1 40053U 14034A   26197.63160936  .00000542  00000+0  11975-3 0  9999
2 40053  98.0616 259.3626 0001596  93.9281 266.2102 14.60982984641438
SKYSAT-B                
1 40072U 14037D   26197.44272534  .00000596  00000+0  71529-4 0  9991
2 40072  98.3854 158.0796 0005673 168.9313 191.2027 14.88093555650315
WORLDVIEW-3 (WV-3)      
1 40115U 14048A   26197.61210869  .00000355  00000+0  47838-4 0  9992
2 40115  97.8556 272.0376 0001410 153.8010 206.3276 14.85065464646278
GAOFEN-2                
1 40118U 14049A   26197.63554432  .00000330  00000+0  49600-4 0  9997
2 40118  98.0097 261.8127 0008320 130.2667 229.9274 14.80929333643598
YAOGAN-21               
1 40143U 14053A   26197.59363500  .00004764  00000+0  18354-3 0  9995
2 40143  97.1450 236.5724 0007651   3.2277 356.9011 15.26771842659445
YAOGAN-22               
1 40275U 14063A   26197.38928612 -.00000043  00000+0  11304-4 0  9996
2 40275 100.7763 349.1522 0006882 122.7206 237.4569 13.15531517563657
ASNARO                  
1 40298U 14070A   26197.65889231  .00004009  00000+0  19255-3 0  9999
2 40298  97.3449 272.9813 0004875  84.5292 275.6499 15.19393545648484
YAOGAN-24               
1 40310U 14072A   26197.63641683  .00000674  00000+0  10522-3 0  9993
2 40310  98.1527 335.2254 0014714 165.0366 195.1282 14.76120969628065
CBERS 4                 
1 40336U 14079A   26197.59075644  .00000165  00000+0  71865-4 0  9994
2 40336  98.3516 253.4976 0000762  52.6867 307.4389 14.35516730608176
YAOGAN-26               
1 40362U 14088A   26197.61147966  .00011363  00000+0  21547-3 0  9996
2 40362  97.0644 197.1555 0001665 334.0463  26.0704 15.48478311642251
SMAP                    
1 40376U 15003A   26197.54984790  .00000165  00000+0  40932-4 0  9993
2 40376  98.1284 204.2295 0001610  94.4352 265.7034 14.63389758611912
KOMPSAT-3A              
1 40536U 15014A   26197.59073951  .00021336  00000+0  29252-3 0  9990
2 40536  97.6893 191.1373 0056115  70.8004 289.9310 15.55483903626384
SENTINEL-2A             
1 40697U 15028A   26197.65525922  .00000241  00000+0  10850-3 0  9996
2 40697  98.5681 272.0872 0001289  93.9032 266.2299 14.30815497577949
GAOFEN-8                
1 40701U 15030A   26197.59314917  .00015358  00000+0  30560-3 0  9993
2 40701  97.6887  32.7498 0009960  91.4441 268.7949 15.46980913615990
CARBONITE 1 (CBNT-1)    
1 40718U 15032D   26197.58796853  .00001190  00000+0  15005-3 0  9991
2 40718  97.6515  14.4260 0014004 192.2553 167.8323 14.83671172593702
YAOGAN-27               
1 40878U 15040A   26197.60064424 -.00000193  00000+0 -39597-3 0  9998
2 40878 100.1168 182.7091 0008555 142.0196 218.1522 13.16071967521538
GAOFEN-9 01             
1 40894U 15047A   26197.61723630  .00000456  00000+0  62039-4 0  9993
2 40894  97.6264 231.9735 0028365  46.0054 314.3492 14.82936521584558
YAOGAN-28               
1 41026U 15064A   26197.60312495  .00003548  00000+0  13325-3 0  9990
2 41026  97.3114 335.2779 0012074  88.7506 271.5117 15.27770613595174
YAOGAN-29               
1 41038U 15069A   26197.59366191  .00000537  00000+0  72604-4 0  9999
2 41038  98.0016 226.2714 0000668  11.6921 348.4308 14.83109169574981
KENT RIDGE 1            
1 41167U 15077B   26197.23750091  .00002315  00000+0  63610-4 0  9991
2 41167  14.9804  49.9101 0008282 289.5627  70.3801 15.23286863585539
GAOFEN-4                
1 41194U 15083A   26197.57599029 -.00000345  00000+0  00000+0 0  9998
2 41194   0.4312  83.7510 0004277 125.6334  38.0749  1.00271956 38822
JASON-3                 
1 41240U 16002A   26197.59498996 -.00000033  00000+0  11388-3 0  9994
2 41240  66.0416  64.0093 0008166 270.7923  89.2160 12.87628709491032
SENTINEL-3A             
1 41335U 16011A   26197.60097103  .00000043  00000+0  35941-4 0  9998
2 41335  98.6237 264.5601 0001356  89.5036 270.6300 14.26740004542257
ZIYUAN 3-02 (ZY 3-02)   
1 41556U 16033A   26197.65654236  .00002692  00000+0  12266-3 0  9994
2 41556  97.3826 272.8644 0014248 179.8328 180.2916 15.21442827562464
CARTOSAT-2C             
1 41599U 16040A   26197.63362487  .00003612  00000+0  17433-3 0  9995
2 41599  97.4468 257.2036 0009440  40.2190 319.9741 15.19274113558181
